KUIPER-00061            
1 64521U 25134X   26027.30730929  .00000260  00000+0  63105-4 0  9999
2 64521  51.9013  51.0757 0000810  66.3166 293.7882 14.79934319 34007
KUIPER-00062            
1 64522U 25134Y   26027.37524365  .00006853  00000+0  81639-3 0  9997
2 64522  51.8973  54.0693 0007121 147.0848 213.0561 14.85264834 33980
KUIPER-00063            
1 64523U 25134Z   26027.49854195  .00007739  00000+0  10385-2 0  9991
2 64523  51.9026  60.2298 0001201  43.3387 316.7670 14.80112901 33906
KUIPER-00064            
1 64524U 25134AA  26027.36676233  .00007770  00000+0  10480-2 0  9994
2 64524  51.9030  58.2407 0000663  69.9816 290.1218 14.79892326 33922
KUIPER-00065            
1 64525U 25134AB  26027.29167302  .00007824  00000+0  10466-2 0  9993
2 64525  51.9031  63.7043 0005355 142.2536 217.8803 14.80233036 33822
KUIPER-00066            
1 64526U 25134AC  26027.22231395  .00030383  00000+0  13164-2 0  9995
2 64526  51.8817  20.0695 0002076 104.1162 256.0049 15.22135639 34445
KUIPER-00069            
1 64816U 25151A   26027.45333255  .00028208  00000+0  37141-2 0  9993
2 64816  51.9025 102.9615 0002219 158.4656 201.6400 14.79927562 30651
KUIPER-00070            
1 64817U 25151B   26027.46014497  .00004921  00000+0  67383-3 0  9997
2 64817  51.8995 127.8684 0003190 150.0538 210.0607 14.79944765 30315
